OBJECT_NAME,OBJECT_ID,EPOCH,MEAN_MOTION,ECCENTRICITY,INCLINATION,RA_OF_ASC_NODE,ARG_OF_PERICENTER,MEAN_ANOMALY,EPHEMERIS_TYPE,CLASSIFICATION_TYPE,NORAD_CAT_ID,ELEMENT_SET_NO,REV_AT_EPOCH,BSTAR,MEAN_MOTION_DOT,MEAN_MOTION_DDOT
SAUDISAT 5A,2018-102A,2026-06-17T03:57:20.811744,15.28048792,.0011006,97.3066,229.7463,129.1837,231.0382,0,U,43831,999,41567,.17974E-3,.4851E-4,0
SAUDISAT 5B,2018-102C,2026-06-17T04:24:29.287584,15.28304638,.0011675,97.3174,232.8344,131.2379,228.9869,0,U,43833,999,41579,.15897E-3,.4316E-4,0
GAOFEN-10R,2019-066A,2026-06-17T03:41:28.402944,14.83060816,.0006678,98.0497,121.7328,127.5875,232.5945,0,U,44622,999,36237,.11912E-3,.915E-5,0
CARTOSAT-3,2019-081A,2026-06-17T03:46:33.671424,15.19280547,.0013311,97.4306,230.0244,148.4045,211.7991,0,U,44804,999,36346,.98821E-4,.202E-4,0
GAOFEN-12 01,2019-082A,2026-06-17T05:09:26.739648,14.80458460,.0002273,97.8100,174.5936,70.4665,289.6793,0,U,44819,999,35409,.44741E-4,.291E-5,0
CSG-1,2019-092A,2026-06-17T04:28:22.310112,14.82153169,.000147,97.8888,351.7888,89.4050,270.7332,0,U,44873,999,35147,.44909E-4,.305E-5,0
NEMO-HD,2020-061F,2026-06-17T04:40:08.836608,15.44594372,.0002277,97.1917,230.1473,81.4002,278.7505,0,U,46277,999,32198,.19665E-3,.9059E-4,0
SENTINEL-6A,2020-086A,2026-06-17T03:55:31.533024,12.80929930,.0007943,66.0394,135.1014,270.2134,89.7971,0,U,46984,999,26032,-.49162E-4,-.72E-6,0
CAS500-1,2021-022A,2026-06-17T04:40:21.247104,15.20133222,.0003386,97.3901,63.4481,300.9684,59.1219,0,U,47932,999,29076,.25557E-3,.5459E-4,0
GAOFEN-12 02,2021-026A,2026-06-17T05:25:22.429920,14.80296288,.0003674,97.9921,166.4064,221.6383,138.4549,0,U,48079,999,28176,.45902E-4,.297E-5,0
PLEIADES NEO 3,2021-034A,2026-06-17T04:27:17.149824,14.81675010,.0001393,97.8936,242.9522,88.5567,271.5806,0,U,48268,999,27765,.14156E-3,.1062E-4,0
PLEIADES NEO 4,2021-073E,2026-06-17T03:38:38.784192,14.81675051,.000134,97.8940,242.9144,86.3473,273.7893,0,U,49070,999,26136,.84037E-4,.609E-5,0
LANDSAT 9,2021-088A,2026-06-17T01:25:13.296288,14.57097098,.0001342,98.2281,238.2382,85.7393,274.3958,0,U,49260,999,25098,.75148E-4,.293E-5,0
CSG-2,2022-008A,2026-06-17T03:39:44.246880,14.82157581,.0001478,97.8877,351.7506,84.8143,275.3239,0,U,51444,999,23658,.73997E-4,.537E-5,0
GAOFEN-12 03,2022-069A,2026-06-17T04:31:06.399264,14.80036666,.0002062,97.8283,56.0589,102.2949,257.8494,0,U,52912,999,21461,.18006E-3,.1312E-4,0
SWOT,2022-173A,2026-06-17T03:08:52.407168,14.00169654,.0000237,77.6106,35.3858,86.6030,273.5148,0,U,54754,999,17914,.99685E-5,.12E-6,0
GAOFEN-12 04,2023-123A,2026-06-17T04:55:07.436352,14.80228774,.0001794,97.9122,86.2225,83.1972,276.9444,0,U,57654,999,15263,.11134E-3,.795E-5,0
PARS 1,2024-039Q,2026-06-17T04:26:28.061664,15.45724577,.0011505,97.4823,149.1047,111.6362,248.6114,0,U,59065,999,12864,.19865E-3,.9529E-4,0
RESURS-P 4,2024-061A,2026-06-17T04:44:54.316032,15.32131543,.0002175,97.2755,116.0965,126.7107,233.4335,0,U,59371,999,12376,.85423E-4,.2574E-4,0
LEGION 1,2024-081A,2026-06-17T03:51:52.966080,15.16666770,.0009516,97.5019,246.0181,18.1231,342.0339,0,U,59625,999,11753,.16223E-3,.3111E-4,0
LEGION 2,2024-081B,2026-06-17T03:00:02.630880,15.16645098,.0010766,97.5019,246.0801,343.9467,16.1423,0,U,59626,999,11753,.13791E-3,.2633E-4,0
ALOS-4 (DAICHI-4),2024-123A,2026-06-15T20:57:49.442688,14.79475009,.0001588,97.9245,264.0657,97.6943,262.4449,0,U,60182,999,10568,.17718E-3,.1272E-4,0
LEGION 3,2024-146A,2026-06-17T01:33:40.199040,15.16036820,.0007627,45.0025,31.2103,169.5380,190.5659,0,U,60452,999,10200,.16612E-3,.2986E-4,0
LEGION 4,2024-146B,2026-06-17T03:13:00.467616,15.16029465,.0013757,45.0006,122.7500,308.1929,51.7710,0,U,60453,999,10086,.18553E-3,.3369E-4,0
SENTINEL-2C,2024-157A,2026-06-17T02:27:45.980064,14.30817792,.0001022,98.5692,242.8858,81.6197,278.5102,0,U,60989,999,9297,.52317E-4,.94E-6,0
IONOSFERA-M 1,2024-199A,2026-06-17T04:39:03.625344,14.22754395,.0001952,98.7173,41.3659,110.2099,249.9289,0,U,61735,999,12770,.44844E-4,.57E-6,0
IONOSFERA-M 2,2024-199B,2026-06-17T03:47:10.579776,14.22757585,.000105,98.7171,41.2409,39.2959,320.8295,0,U,61736,999,13082,.46215E-4,.6E-6,0
PRSC-EO1,2025-012A,2026-06-17T04:36:00.890208,15.17610260,.0004788,97.4225,240.6516,252.4885,107.5826,0,U,62725,999,7819,.27248E-3,.5414E-4,0
BIOMASS,2025-090A,2026-06-17T02:26:25.213344,14.67537982,.0001372,98.0741,355.4200,93.4830,266.6532,0,U,63772,999,6067,.1579E-3,.847E-5,0
GOSAT-GW (IBUKI GW),2025-141A,2026-06-17T04:33:48.891744,14.67554204,.000137,98.0564,105.5084,87.6169,272.5193,0,U,64694,999,5184,.79308E-4,.402E-5,0
IONOSFERA-M 3,2025-155A,2026-06-17T04:12:37.302336,14.21486441,.0001026,98.6024,130.0807,156.8093,203.3131,0,U,64876,999,4640,.32345E-4,.28E-6,0
