SAUDISAT 5A             
1 43831U 18102A   26168.16482421  .00004851  00000+0  17974-3 0  9990
2 43831  97.3066 229.7463 0011006 129.1837 231.0382 15.28048792415672
SAUDISAT 5B             
1 43833U 18102C   26168.18367231  .00004316  00000+0  15897-3 0  9993
2 43833  97.3174 232.8344 0011675 131.2379 228.9869 15.28304638415796
GAOFEN-10R              
1 44622U 19066A   26168.15380096  .00000915  00000+0  11912-3 0  9996
2 44622  98.0497 121.7328 0006678 127.5875 232.5945 14.83060816362371
CARTOSAT-3              
1 44804U 19081A   26168.15733416  .00002020  00000+0  98821-4 0  9997
2 44804  97.4306 230.0244 0013311 148.4045 211.7991 15.19280547363465
GAOFEN-12 01            
1 44819U 19082A   26168.21489282  .00000291  00000+0  44741-4 0  9990
2 44819  97.8100 174.5936 0002273  70.4665 289.6793 14.80458460354095
CSG-1                   
1 44873U 19092A   26168.18636933  .00000305  00000+0  44909-4 0  9996
2 44873  97.8888 351.7888 0001470  89.4050 270.7332 14.82153169351478
NEMO-HD                 
1 46277U 20061F   26168.19454672  .00009059  00000+0  19665-3 0  9998
2 46277  97.1917 230.1473 0002277  81.4002 278.7505 15.44594372321986
SENTINEL-6A             
1 46984U 20086A   26168.16355941 -.00000072  00000+0 -49162-4 0  9990
2 46984  66.0394 135.1014 0007943 270.2134  89.7971 12.80929930260325
CAS500-1                
1 47932U 21022A   26168.19469036  .00005459  00000+0  25557-3 0  9992
2 47932  97.3901  63.4481 0003386 300.9684  59.1219 15.20133222290764
GAOFEN-12 02            
1 48079U 21026A   26168.22595405  .00000297  00000+0  45902-4 0  9995
2 48079  97.9921 166.4064 0003674 221.6383 138.4549 14.80296288281765
PLEIADES NEO 3          
1 48268U 21034A   26168.18561516  .00001062  00000+0  14156-3 0  9992
2 48268  97.8936 242.9522 0001393  88.5567 271.5806 14.81675010277652
PLEIADES NEO 4          
1 49070U 21073E   26168.15183778  .00000609  00000+0  84037-4 0  9996
2 49070  97.8940 242.9144 0001340  86.3473 273.7893 14.81675051261369
LANDSAT 9               
1 49260U 21088A   26168.05918167  .00000293  00000+0  75148-4 0  9992
2 49260  98.2281 238.2382 0001342  85.7393 274.3958 14.57097098250988
CSG-2                   
1 51444U 22008A   26168.15259545  .00000537  00000+0  73997-4 0  9992
2 51444  97.8877 351.7506 0001478  84.8143 275.3239 14.82157581236588
GAOFEN-12 03            
1 52912U 22069A   26168.18826851  .00001312  00000+0  18006-3 0  9994
2 52912  97.8283  56.0589 0002062 102.2949 257.8494 14.80036666214611
SWOT                    
1 54754U 22173A   26168.13116212  .00000012  00000+0  99685-5 0  9994
2 54754  77.6106  35.3858 0000237  86.6030 273.5148 14.00169654179149
GAOFEN-12 04            
1 57654U 23123A   26168.20494718  .00000795  00000+0  11134-3 0  9999
2 57654  97.9122  86.2225 0001794  83.1972 276.9444 14.80228774152631
PARS 1                  
1 59065U 24039Q   26168.18504701  .00009529  00000+0  19865-3 0  9998
2 59065  97.4823 149.1047 0011505 111.6362 248.6114 15.45724577128642
RESURS-P 4              
1 59371U 24061A   26168.19785088  .00002574  00000+0  85423-4 0  9990
2 59371  97.2755 116.0965 0002175 126.7107 233.4335 15.32131543123769
LEGION 1                
1 59625U 24081A   26168.16102970  .00003111  00000+0  16223-3 0  9993
2 59625  97.5019 246.0181 0009516  18.1231 342.0339 15.16666770117535
LEGION 2                
1 59626U 24081B   26168.12503045  .00002633  00000+0  13791-3 0  9993
2 59626  97.5019 246.0801 0010766 343.9467  16.1423 15.16645098117537
ALOS-4 (DAICHI-4)       
1 60182U 24123A   26166.87348892  .00001272  00000+0  17718-3 0  9997
2 60182  97.9245 264.0657 0001588  97.6943 262.4449 14.79475009105682
LEGION 3                
1 60452U 24146A   26168.06504860  .00002986  00000+0  16612-3 0  9999
2 60452  45.0025  31.2103 0007627 169.5380 190.5659 15.16036820102009
LEGION 4                
1 60453U 24146B   26168.13403319  .00003369  00000+0  18553-3 0  9997
2 60453  45.0006 122.7500 0013757 308.1929  51.7710 15.16029465100862
SENTINEL-2C             
1 60989U 24157A   26168.10261551  .00000094  00000+0  52317-4 0  9999
2 60989  98.5692 242.8858 0001022  81.6197 278.5102 14.30817792 92971
IONOSFERA-M 1           
1 61735U 24199A   26168.19379196  .00000057  00000+0  44844-4 0  9994
2 61735  98.7173  41.3659 0001952 110.2099 249.9289 14.22754395127708
IONOSFERA-M 2           
1 61736U 24199B   26168.15776134  .00000060  00000+0  46215-4 0  9992
2 61736  98.7171  41.2409 0001050  39.2959 320.8295 14.22757585130820
PRSC-EO1                
1 62725U 25012A   26168.19167697  .00005414  00000+0  27248-3 0  9990
2 62725  97.4225 240.6516 0004788 252.4885 107.5826 15.17610260 78191
BIOMASS                 
1 63772U 25090A   26168.10168071  .00000847  00000+0  15790-3 0  9991
2 63772  98.0741 355.4200 0001372  93.4830 266.6532 14.67537982 60676
GOSAT-GW (IBUKI GW)     
1 64694U 25141A   26168.19014921  .00000402  00000+0  79308-4 0  9998
2 64694  98.0564 105.5084 0001370  87.6169 272.5193 14.67554204 51849
IONOSFERA-M 3           
1 64876U 25155A   26168.17543174  .00000028  00000+0  32345-4 0  9994
2 64876  98.6024 130.0807 0001026 156.8093 203.3131 14.21486441 46404
